DUPLEX                  
1 66906U 98067XS  26087.84323782  .00033310  00000+0  44902-3 0  9998
2 66906  51.6303 333.5600 0002986 199.9442 160.1434 15.57497317 18119
ISS OBJECT XT           
1 66907U 98067XT  26087.83740742  .00238548  00000+0  14424-2 0  9992
2 66907  51.6244 327.4843 0005982 203.9944 156.0778 15.76334274 18193
ISS OBJECT XU           
1 66908U 98067XU  26087.07290118  .00225038  00000+0  13700-2 0  9992
2 66908  51.6247 331.3755 0006132 198.7840 161.2934 15.76216894 18073
SILVERSAT               
1 66909U 98067XV  26087.85062875  .00360703  00000+0  16717-2 0  9996
2 66909  51.6220 326.0553 0006994 209.6822 150.3784 15.81874533 18214
ISS OBJECT XW           
1 66910U 98067XW  26087.84453985  .00202838  00000+0  13129-2 0  9991
2 66910  51.6233 327.5249 0006302 201.5350 158.5385 15.74880247 18193
ISS OBJECT XX           
1 66911U 98067XX  26087.03713223  .00487256  00000+0  16862-2 0  9993
2 66911  51.6193 328.8401 0008692 208.4454 151.6078 15.87650980 18093
ISS OBJECT XY           
1 66912U 98067XY  26087.85854804  .00114101  00000+0  10162-2 0  9998
2 66912  51.6270 329.8999 0004276 200.6953 159.3871 15.67599679 18153
KNACKSAT-2              
1 67683U 98067XZ  26087.84390624  .00045155  00000+0  70231-3 0  9994
2 67683  51.6323 336.5646 0010005 255.1936 104.7946 15.53408087  7764
CORAL                   
1 67684U 98067YA  26087.71188505  .00098869  00000+0  13026-2 0  9992
2 67684  51.6303 336.4340 0012717 244.5038 115.4639 15.57540134  7751
GXIBA-1                 
1 67685U 98067YB  26087.12648434  .00046994  00000+0  71759-3 0  9990
2 67685  51.6320 340.0239 0011859 249.3772 110.5947 15.53874924  7653
UITMSAT-2               
1 67686U 98067YC  26087.11230092  .00058539  00000+0  86220-3 0  9994
2 67686  51.6320 339.9313 0009050 220.6186 139.4131 15.54802779  7650
HMU-SAT2                
1 67687U 98067YD  26087.71019094  .00050719  00000+0  77992-3 0  9996
2 67687  51.6326 337.1748 0008606 226.2008 133.8271 15.53685811  7669
LEOPARD                 
1 67688U 98067YE  26087.69738044  .00058058  00000+0  86636-3 0  9996
2 67688  51.6331 337.0890 0008791 223.7517 136.2778 15.54451538  7662
CREW DRAGON 12          
1 67796U 26031A   26087.87455012  .00011057  00000+0  21128-3 0  9992
2 67796  51.6344 337.5169 0006219 244.1555 115.8792 15.48616916559265
PROGRESS-MS 33          
1 68319U 26058A   26087.87455012  .00011057  00000+0  21128-3 0  9993
2 68319  51.6344 337.5169 0006219 244.1555 115.8792 15.48616916   774
